[{"OBJECT_NAME":"YAOGAN-33 01","OBJECT_ID":"2020-103A","EPOCH":"2026-03-09T23:33:33.988896","MEAN_MOTION":14.58835093,"ECCENTRICITY":0.00042815,"INCLINATION":98.0558,"RA_OF_ASC_NODE":313.645,"ARG_OF_PERICENTER":85.5228,"MEAN_ANOMALY":274.646,"EPHEMERIS_TYPE":0,"CLASSIFICATION_TYPE":"U","NORAD_CAT_ID":47302,"ELEMENT_SET_NO":999,"REV_AT_EPOCH":27684,"BSTAR":0.00014306185,"MEAN_MOTION_DOT":6.25e-6,"MEAN_MOTION_DDOT":0},{"OBJECT_NAME":"IRIDIUM 33 DEB","OBJECT_ID":"1997-051Q","EPOCH":"2026-03-09T20:11:12.920064","MEAN_MOTION":14.56330725,"ECCENTRICITY":0.00061775,"INCLINATION":86.3831,"RA_OF_ASC_NODE":357.2961,"ARG_OF_PERICENTER":346.3233,"MEAN_ANOMALY":13.7807,"EPHEMERIS_TYPE":0,"CLASSIFICATION_TYPE":"U","NORAD_CAT_ID":33777,"ELEMENT_SET_NO":999,"REV_AT_EPOCH":89801,"BSTAR":0.00078869139,"MEAN_MOTION_DOT":3.515e-5,"MEAN_MOTION_DDOT":0}]
